KUIPER-00016            
1 63732U 25088J   25230.58335648  .00000938  00000+0  14279-3 0  9993
2 63732  51.8984 289.7654 0010399 110.8994 250.0837 14.82815658 17251
KUIPER-00018            
1 63733U 25088K   25230.52030969  .00004108  00000+0  24930-3 0  9994
2 63733  51.8790 282.3117 0011169 123.8006 236.4035 15.12585480 17354
KUIPER-00019            
1 63734U 25088L   25230.25004630 -.00014388  00000+0 -75037-3 0  9998
2 63734  51.8764 282.4099 0007733 135.7282  38.9920 15.14770503 17325
KUIPER-00020            
1 63735U 25088M   25230.58335648  .00032966  00000+0  21454-2 0  9994
2 63735  51.8877 283.1962 0007868 130.5856 282.4770 15.07647795 17559
KUIPER-00021            
1 63736U 25088N   25230.58335648  .00042948  00000+0  28389-2 0  9990
2 63736  51.8930 283.9576 0007295 112.5599 349.1694 15.06950162 17377
KUIPER-00023            
1 63737U 25088P   25230.58335648  .00022226  00000+0  16387-2 0  9993
2 63737  51.8859 284.9743 0012808 119.8551 218.2036 15.03161022 17652
KUIPER-00024            
1 63738U 25088Q   25230.58335648  .00057135  00000+0  21244-2 0  9999
2 63738  51.8785 278.2890 0003295 114.3897 212.5717 15.26967000 17875
KUIPER-00025            
1 63739U 25088R   25230.41677436  .00006905  00000+0  41390-3 0  9990
2 63739  51.8840 282.9461 0009272 119.4304 240.7599 15.11994916 17662
